STARLINK-34192          
1 64014U 25101W   26193.85698794  .00014391  00000+0  53134-3 0  9997
2 64014  43.0024  11.4512 0001592 259.3661 100.7012 15.27587901 66191
STARLINK-34093          
1 64015U 25101X   26193.87997021  .00017332  00000+0  63763-3 0  9992
2 64015  43.0038  10.7629 0001983 265.8923  94.1702 15.27592021 66208
STARLINK-34016          
1 64016U 25101Y   26193.94021910  .00006973  00000+0  26264-3 0  9990
2 64016  43.0032  10.3545 0001312 283.2995  76.7710 15.27583689 66211
STARLINK-34161          
1 64017U 25101Z   26193.88381980  .00018905  00000+0  69430-3 0  9990
2 64017  43.0044  10.7911 0001975 274.8594  85.2033 15.27601440 66200
STARLINK-34162          
1 64018U 25101AA  26193.89666838  .00019946  00000+0  73194-3 0  9998
2 64018  43.0035  10.8847 0002841 276.4215  83.6313 15.27598216 66200
STARLINK-34155          
1 64019U 25101AB  26193.90439188  .00009196  00000+0  34335-3 0  9997
2 64019  43.0027  10.9390 0002686 251.7548 108.3011 15.27571210 66203
STARLINK-34141          
1 64020U 25101AC  26192.91972975  .00009505  00000+0  35444-3 0  9991
2 64020  43.0036  16.4466 0002791 262.7444  97.3091 15.27584296 66050
STARLINK-34062          
1 64021U 25101AD  26193.87867955  .00017330  00000+0  63740-3 0  9994
2 64021  43.0039  10.7499 0001774 251.7218 108.3440 15.27600904 66207
STARLINK-34051          
1 64022U 25102A   26193.94122125  .00003777  00000+0  32415-3 0  9992
2 64022  70.0011 158.6530 0003625 269.9509  90.1235 14.98332832 64710
STARLINK-34087          
1 64023U 25102B   26194.29157876  .00004242  00000+0  36312-3 0  9991
2 64023  70.0035 157.8658 0002651 267.1123  92.9733 14.98328050 64775
STARLINK-34184          
1 64024U 25102C   26193.92435876  .00001964  00000+0  17229-3 0  9994
2 64024  69.9995 158.5892 0003175 267.5153  92.5642 14.98340573 64606
STARLINK-34088          
1 64025U 25102D   26194.30007043  .00001295  00000+0  11633-3 0  9999
2 64025  70.0005 157.8920 0002962 264.6626  95.4195 14.98332699 64775
STARLINK-33992          
1 64026U 25102E   26194.30825552  .00003244  00000+0  27956-3 0  9994
2 64026  69.9997 157.9257 0003348 260.9345  99.1436 14.98332498 64858
STARLINK-33967          
1 64027U 25102F   26194.00781613  .00000872  00000+0  80809-4 0  9992
2 64027  69.9983 158.4765 0003508 266.9552  93.1206 14.98343209 64668
STARLINK-33953          
1 64028U 25102G   26194.31239626  .00001806  00000+0  15911-3 0  9998
2 64028  69.9994 157.5330 0003703 261.3445  98.7295 14.98339902 64873
STARLINK-33790          
1 64029U 25102H   26193.95374871  .00003613  00000+0  31050-3 0  9990
2 64029  70.0029 158.6891 0003226 273.9597  86.1193 14.98325406 64767
STARLINK-34030          
1 64030U 25102J   26194.29990553  .00002975  00000+0  25698-3 0  9992
2 64030  70.0024 157.8977 0003451 263.3320  96.7447 14.98333190 64776
STARLINK-34024          
1 64031U 25102K   26194.28321219  .00003301  00000+0  28420-3 0  9999
2 64031  70.0000 157.8377 0003038 267.9707  92.1105 14.98347326 64705
STARLINK-34019          
1 64032U 25102L   26193.92019671  .00002542  00000+0  22072-3 0  9999
2 64032  69.9999 158.5729 0003037 271.8675  88.2136 14.98344020 64726
STARLINK-33860          
1 64033U 25102M   26193.93271910 -.00006525  00000+0 -53983-3 0  9999
2 64033  70.0092 158.6134 0004740 255.0711 104.9923 14.98302698 64727
STARLINK-33946          
1 64034U 25102N   26194.00002315 -.00035076  00000+0 -29462-2 0  9997
2 64034  70.0007 158.4777 0003003 267.9782  71.7235 14.98334699  5779
STARLINK-34046          
1 64035U 25102P   26194.30423116  .00001194  00000+0  10780-3 0  9993
2 64035  70.0004 157.7907 0003835 262.4293  97.6431 14.98340927 64540
STARLINK-34085          
1 64036U 25102Q   26194.29171943  .00001716  00000+0  15155-3 0  9991
2 64036  70.0003 157.8609 0003561 264.3668  95.7085 14.98335258 64762
STARLINK-34008          
1 64037U 25102R   26193.94539392  .00001440  00000+0  12846-3 0  9997
2 64037  70.0027 158.6534 0003477 258.9502 101.1266 14.98340502 64724
STARLINK-34079          
1 64038U 25102S   26194.31656618  .00004761  00000+0  40628-3 0  9999
2 64038  70.0016 157.5487 0003286 256.8855 103.1938 14.98351053 64871
STARLINK-34089          
1 64039U 25102T   26194.30841376  .00003240  00000+0  27925-3 0  9992
2 64039  70.0025 157.9216 0003556 264.7229  95.3525 14.98322958 64763
STARLINK-34117          
1 64040U 25102U   26194.29589705  .00000563  00000+0  54976-4 0  9999
2 64040  70.0013 157.8754 0003309 262.1996  97.8788 14.98331766 64706
STARLINK-34111          
1 64041U 25102V   26194.28337113  .00002045  00000+0  17913-3 0  9999
2 64041  69.9958 157.8287 0003325 270.4627  89.6151 14.98335422 64542
STARLINK-34049          
1 64042U 25102W   26194.30409485  .00002939  00000+0  25396-3 0  9991
2 64042  70.0003 157.9089 0003776 264.7674  95.3054 14.98331414 64763
STARLINK-34096          
1 64043U 25102X   26193.95358163 -.00000532  00000+0 -36772-4 0  9998
2 64043  69.9979 158.6907 0002947 260.6632  99.4194 14.98333426 64606
