OBJECT_NAME,OBJECT_ID,EPOCH,MEAN_MOTION,ECCENTRICITY,INCLINATION,RA_OF_ASC_NODE,ARG_OF_PERICENTER,MEAN_ANOMALY,EPHEMERIS_TYPE,CLASSIFICATION_TYPE,NORAD_CAT_ID,ELEMENT_SET_NO,REV_AT_EPOCH,BSTAR,MEAN_MOTION_DOT,MEAN_MOTION_DDOT
STARLINK-34192,2025-101W,2026-07-12T20:34:03.758016,15.27587901,.0001592,43.0024,11.4512,259.3661,100.7012,0,U,64014,999,6619,.53133618E-3,.14391E-3,0
STARLINK-34093,2025-101X,2026-07-12T21:07:09.426144,15.27592021,.00019835,43.0038,10.7629,265.8923,94.1702,0,U,64015,999,6620,.6376273E-3,.17332E-3,0
STARLINK-34016,2025-101Y,2026-07-12T22:33:54.930240,15.27583689,.00013127,43.0032,10.3545,283.2995,76.7710,0,U,64016,999,6621,.26264331E-3,.6973E-4,0
STARLINK-34161,2025-101Z,2026-07-12T21:12:42.030720,15.27601440,.00019753,43.0044,10.7911,274.8594,85.2033,0,U,64017,999,6620,.69430363E-3,.18905E-3,0
STARLINK-34162,2025-101AA,2026-07-12T21:31:12.148032,15.27598216,.00028419,43.0035,10.8847,276.4215,83.6313,0,U,64018,999,6620,.73193732E-3,.19946E-3,0
STARLINK-34155,2025-101AB,2026-07-12T21:42:19.458432,15.27571210,.00026867,43.0027,10.9390,251.7548,108.3011,0,U,64019,999,6620,.34334999E-3,.9196E-4,0
STARLINK-34141,2025-101AC,2026-07-11T22:04:24.650400,15.27584296,.0002791,43.0036,16.4466,262.7444,97.3091,0,U,64020,999,6605,.35444E-3,.9505E-4,0
STARLINK-34062,2025-101AD,2026-07-12T21:05:17.913120,15.27600904,.0001774,43.0039,10.7499,251.7218,108.3440,0,U,64021,999,6620,.63739675E-3,.1733E-3,0
STARLINK-34051,2025-102A,2026-07-12T22:35:21.516000,14.98332832,.00036259,70.0011,158.6530,269.9509,90.1235,0,U,64022,999,6471,.32415198E-3,.3777E-4,0
STARLINK-34087,2025-102B,2026-07-13T06:59:52.404864,14.98328050,.00026517,70.0035,157.8658,267.1123,92.9733,0,U,64023,999,6477,.36311958E-3,.4242E-4,0
STARLINK-34184,2025-102C,2026-07-12T22:11:04.596864,14.98340573,.0003175,69.9995,158.5892,267.5153,92.5642,0,U,64024,999,6460,.17229224E-3,.1964E-4,0
STARLINK-34088,2025-102D,2026-07-13T07:12:06.085152,14.98332699,.00029626,70.0005,157.8920,264.6626,95.4195,0,U,64025,999,6477,.11632717E-3,.1295E-4,0
STARLINK-33992,2025-102E,2026-07-13T07:23:53.276928,14.98332498,.00033486,69.9997,157.9257,260.9345,99.1436,0,U,64026,999,6485,.27956124E-3,.3244E-4,0
STARLINK-33967,2025-102F,2026-07-13T00:11:15.313632,14.98343209,.00035089,69.9983,158.4765,266.9552,93.1206,0,U,64027,999,6466,.80809287E-4,.872E-5,0
STARLINK-33953,2025-102G,2026-07-13T07:29:51.036864,14.98339902,.00037037,69.9994,157.5330,261.3445,98.7295,0,U,64028,999,6487,.15911203E-3,.1806E-4,0
STARLINK-33790,2025-102H,2026-07-12T22:53:23.888544,14.98325406,.00032261,70.0029,158.6891,273.9597,86.1193,0,U,64029,999,6476,.31050367E-3,.3613E-4,0
STARLINK-34030,2025-102J,2026-07-13T07:11:51.837792,14.98333190,.00034515,70.0024,157.8977,263.3320,96.7447,0,U,64030,999,6477,.25697917E-3,.2975E-4,0
STARLINK-34024,2025-102K,2026-07-13T06:47:49.533216,14.98347326,.00030381,70.0000,157.8377,267.9707,92.1105,0,U,64031,999,6470,.28420115E-3,.3301E-4,0
STARLINK-34019,2025-102L,2026-07-12T22:05:04.995744,14.98344020,.00030374,69.9999,158.5729,271.8675,88.2136,0,U,64032,999,6472,.22071946E-3,.2542E-4,0
STARLINK-33860,2025-102M,2026-07-12T22:23:06.930240,14.98302698,.00047401,70.0092,158.6134,255.0711,104.9923,0,U,64033,999,6472,-.53983442E-3,-.6525E-4,0
STARLINK-33946,2025-102N,2026-07-13T00:00:02.000160,14.98334699,.00030038,70.0007,158.4777,267.9782,71.7235,0,U,64034,999,577,-.29462033E-2,-.35076E-3,0
STARLINK-34046,2025-102P,2026-07-13T07:18:05.572224,14.98340927,.00038352,70.0004,157.7907,262.4293,97.6431,0,U,64035,999,6454,.10779807E-3,.1194E-4,0
STARLINK-34085,2025-102Q,2026-07-13T07:00:04.558752,14.98335258,.00035612,70.0003,157.8609,264.3668,95.7085,0,U,64036,999,6476,.15154637E-3,.1716E-4,0
STARLINK-34008,2025-102R,2026-07-12T22:41:22.034688,14.98340502,.00034773,70.0027,158.6534,258.9502,101.1266,0,U,64037,999,6472,.12845809E-3,.144E-4,0
STARLINK-34079,2025-102S,2026-07-13T07:35:51.317952,14.98351053,.0003286,70.0016,157.5487,256.8855,103.1938,0,U,64038,999,6487,.40628353E-3,.4761E-4,0
STARLINK-34089,2025-102T,2026-07-13T07:24:06.948864,14.98322958,.00035562,70.0025,157.9216,264.7229,95.3525,0,U,64039,999,6476,.27924906E-3,.324E-4,0
STARLINK-34117,2025-102U,2026-07-13T07:06:05.505120,14.98331766,.00033095,70.0013,157.8754,262.1996,97.8788,0,U,64040,999,6470,.54976251E-4,.563E-5,0
STARLINK-34111,2025-102V,2026-07-13T06:48:03.265632,14.98335422,.00033256,69.9958,157.8287,270.4627,89.6151,0,U,64041,999,6454,.1791263E-3,.2045E-4,0
STARLINK-34049,2025-102W,2026-07-13T07:17:53.795040,14.98331414,.00037763,70.0003,157.9089,264.7674,95.3054,0,U,64042,999,6476,.25396483E-3,.2939E-4,0
STARLINK-34096,2025-102X,2026-07-12T22:53:09.452832,14.98333426,.00029474,69.9979,158.6907,260.6632,99.4194,0,U,64043,999,6460,-.36772023E-4,-.532E-5,0
